[{"OBJECT_NAME":"STARLINK-35269","OBJECT_ID":"2025-207B","EPOCH":"2026-03-09T18:20:29.294880","MEAN_MOTION":15.05645312,"ECCENTRICITY":7.35e-5,"INCLINATION":97.6016,"RA_OF_ASC_NODE":138.7535,"ARG_OF_PERICENTER":91.3559,"MEAN_ANOMALY":268.7752,"EPHEMERIS_TYPE":0,"CLASSIFICATION_TYPE":"U","NORAD_CAT_ID":65593,"ELEMENT_SET_NO":999,"REV_AT_EPOCH":2826,"BSTAR":0.00011360993,"MEAN_MOTION_DOT":1.579e-5,"MEAN_MOTION_DDOT":0},{"OBJECT_NAME":"COSMOS 2251 DEB","OBJECT_ID":"1993-036GR","EPOCH":"2026-03-09T03:51:30.155616","MEAN_MOTION":15.03624382,"ECCENTRICITY":0.001162,"INCLINATION":74.0519,"RA_OF_ASC_NODE":328.1155,"ARG_OF_PERICENTER":228.8449,"MEAN_ANOMALY":281.5146,"EPHEMERIS_TYPE":0,"CLASSIFICATION_TYPE":"U","NORAD_CAT_ID":34006,"ELEMENT_SET_NO":999,"REV_AT_EPOCH":89963,"BSTAR":0.0037151817,"MEAN_MOTION_DOT":0.00051242,"MEAN_MOTION_DDOT":0}]
